*******************************************************************************
Ephemeris / WWW_USER Mon Mar 10 14:48:47 2025 Pasadena, USA      / Horizons    
*******************************************************************************
Target body name: (2017 SN16)                     {source: JPL#20}
Center body name: Earth (399)                     {source: DE441}
Center-site name: Gemini South Obs., Cerro Pachon
*******************************************************************************
Start time      : A.D. 2018-Sep-20 22:46:00.0000 UT      
Stop  time      : A.D. 2018-Sep-21 10:25:00.0000 UT      
Step-size       : 1 minutes
*******************************************************************************
Target pole/equ : undefined
Target radii    : undefined                                                    
Center geodetic : 289.2634, -30.2406227, 2.71233  {E-lon(deg),Lat(deg),Alt(km)}
Center cylindric: 289.2634,5517.21435,-3194.81213 {E-lon(deg),Dxy(km),Dz(km)}
Center pole/equ : ITRF93                          {East-longitude positive}
Center radii    : 6378.137, 6378.137, 6356.752 km {Equator_a, b, pole_c}       
Target primary  : Sun
Vis. interferer : MOON (R_eq= 1737.400) km        {source: DE441}
Rel. light bend : Sun                             {source: DE441}
Rel. lght bnd GM: 1.3271E+11 km^3/s^2                                          
Small-body perts: Yes                             {source: SB441-N16}
Atmos refraction: NO (AIRLESS)
RA format       : HMS
Time format     : CAL 
Calendar mode   : Mixed Julian/Gregorian
RTS-only print  : NO       
EOP file        : eop.250307.p250603                                           
EOP coverage    : DATA-BASED 1962-JAN-20 TO 2025-MAR-07. PREDICTS-> 2025-JUN-02
Units conversion: 1 au= 149597870.700 km, c= 299792.458 km/s, 1 day= 86400.0 s 
Table cut-offs 1: Elevation (-90.0deg=NO ),Airmass (>38.000=NO), Daylight (YES)
Table cut-offs 2: Solar elongation (  0.0,180.0=NO ),Local Hour Angle( 0.0=NO )
Table cut-offs 3: RA/DEC angular rate (     0.0=NO )                           
*******************************************************************************
Initial IAU76/J2000 heliocentric ecliptic osculating elements (au, days, deg.):
  EPOCH=  2458305.5 ! 2018-Jul-06.00 (TDB)         Residual RMS= .23751        
   EC= .1454884975659386   QR= .8682464985612274   TP= 2458145.5722438502      
   OM= 2.759719470837934   W=  137.1017088998531   IN= 13.38264682844635       
  Equivalent ICRF heliocentric cartesian coordinates (au, au/d):
   X= 5.756755401261899E-01  Y=-7.953424559592890E-01  Z=-6.031561894536019E-01
  VX= 1.332076113263395E-02 VY= 5.454663564585547E-03 VZ= 3.896229736425836E-03
Asteroid physical parameters (km, seconds, rotational period in hours):        
   GM= n.a.                RAD= n.a.               ROTPER= n.a.                
   H= 23.34                G= .150                 B-V= n.a.                   
                           ALBEDO= n.a.            STYP= n.a.                  
*******************************************************************************
 Date__(UT)__HR:MN     R.A._________(ICRF)_________DEC
******************************************************
$$SOE
 2018-Sep-21 09:01     23 46 10.606574 -14 20 53.43688
 2018-Sep-21 09:02     23 46 10.319709 -14 20 50.95827
 2018-Sep-21 09:03     23 46 10.032916 -14 20 48.47948
 2018-Sep-21 09:04     23 46 09.746197 -14 20 46.00052
 2018-Sep-21 09:05     23 46 09.459552 -14 20 43.52138
 2018-Sep-21 09:06     23 46 09.172981 -14 20 41.04206
 2018-Sep-21 09:07     23 46 08.886483 -14 20 38.56257
 2018-Sep-21 09:08     23 46 08.600059 -14 20 36.08291
 2018-Sep-21 09:09     23 46 08.313709 -14 20 33.60308
 2018-Sep-21 09:10     23 46 08.027434 -14 20 31.12308
 2018-Sep-21 09:11     23 46 07.741233 -14 20 28.64292
 2018-Sep-21 09:12     23 46 07.455106 -14 20 26.16258
 2018-Sep-21 09:13     23 46 07.169054 -14 20 23.68208
 2018-Sep-21 09:14 A   23 46 06.883076 -14 20 21.20141
 2018-Sep-21 09:15 A   23 46 06.597174 -14 20 18.72058
 2018-Sep-21 09:16 A   23 46 06.311346 -14 20 16.23959
 2018-Sep-21 09:17 A   23 46 06.025594 -14 20 13.75844
 2018-Sep-21 09:18 A   23 46 05.739916 -14 20 11.27713
 2018-Sep-21 09:19 A   23 46 05.454314 -14 20 08.79566
 2018-Sep-21 09:20 A   23 46 05.168787 -14 20 06.31403
 2018-Sep-21 09:21 A   23 46 04.883336 -14 20 03.83224
 2018-Sep-21 09:22 A   23 46 04.597960 -14 20 01.35031
 2018-Sep-21 09:23 A   23 46 04.312660 -14 19 58.86821
 2018-Sep-21 09:24 A   23 46 04.027436 -14 19 56.38597
 2018-Sep-21 09:25 A   23 46 03.742287 -14 19 53.90357
 2018-Sep-21 09:26 A   23 46 03.457215 -14 19 51.42103
 2018-Sep-21 09:27 A   23 46 03.172219 -14 19 48.93833
 2018-Sep-21 09:28 A   23 46 02.887299 -14 19 46.45549
 2018-Sep-21 09:29 A   23 46 02.602455 -14 19 43.97250
 2018-Sep-21 09:30 A   23 46 02.317688 -14 19 41.48937
 2018-Sep-21 09:31 A   23 46 02.032997 -14 19 39.00610
 2018-Sep-21 09:32 A   23 46 01.748383 -14 19 36.52268
 2018-Sep-21 09:33 A   23 46 01.463846 -14 19 34.03912
 2018-Sep-21 09:34 A   23 46 01.179385 -14 19 31.55542
 2018-Sep-21 09:35 A   23 46 00.895001 -14 19 29.07158
 2018-Sep-21 09:36 A   23 46 00.610694 -14 19 26.58761
 2018-Sep-21 09:37 A   23 46 00.326464 -14 19 24.10350
 2018-Sep-21 09:38 A   23 46 00.042311 -14 19 21.61925
 2018-Sep-21 09:39 A   23 45 59.758236 -14 19 19.13488
 2018-Sep-21 09:40 A   23 45 59.474237 -14 19 16.65036
 2018-Sep-21 09:41 A   23 45 59.190317 -14 19 14.16572
 2018-Sep-21 09:42 N   23 45 58.906473 -14 19 11.68095
 2018-Sep-21 09:43 N   23 45 58.622707 -14 19 09.19605
 2018-Sep-21 09:44 N   23 45 58.339018 -14 19 06.71102
 2018-Sep-21 09:45 N   23 45 58.055408 -14 19 04.22587
 2018-Sep-21 09:46 N   23 45 57.771874 -14 19 01.74059
 2018-Sep-21 09:47 N   23 45 57.488419 -14 18 59.25519
 2018-Sep-21 09:48 N   23 45 57.205042 -14 18 56.76967
 2018-Sep-21 09:49 N   23 45 56.921742 -14 18 54.28403
 2018-Sep-21 09:50 N   23 45 56.638521 -14 18 51.79826
 2018-Sep-21 09:51 N   23 45 56.355377 -14 18 49.31238
 2018-Sep-21 09:52 N   23 45 56.072312 -14 18 46.82638
 2018-Sep-21 09:53 N   23 45 55.789324 -14 18 44.34027
 2018-Sep-21 09:54 N   23 45 55.506415 -14 18 41.85404
 2018-Sep-21 09:55 N   23 45 55.223585 -14 18 39.36770
 2018-Sep-21 09:56 N   23 45 54.940832 -14 18 36.88125
 2018-Sep-21 09:57 N   23 45 54.658158 -14 18 34.39468
 2018-Sep-21 09:58 N   23 45 54.375563 -14 18 31.90801
 2018-Sep-21 09:59 N   23 45 54.093046 -14 18 29.42123
 2018-Sep-21 10:00 N   23 45 53.810607 -14 18 26.93434
 2018-Sep-21 10:01 N   23 45 53.528247 -14 18 24.44734
 2018-Sep-21 10:02 N   23 45 53.245966 -14 18 21.96025
 2018-Sep-21 10:03 N   23 45 52.963763 -14 18 19.47305
 2018-Sep-21 10:04 N   23 45 52.681639 -14 18 16.98574
 2018-Sep-21 10:05 N   23 45 52.399594 -14 18 14.49834
 2018-Sep-21 10:06 N   23 45 52.117628 -14 18 12.01084
 2018-Sep-21 10:07 N   23 45 51.835740 -14 18 09.52324
 2018-Sep-21 10:08 N   23 45 51.553932 -14 18 07.03554
 2018-Sep-21 10:09 N   23 45 51.272202 -14 18 04.54775
 2018-Sep-21 10:10 C   23 45 50.990551 -14 18 02.05987
 2018-Sep-21 10:11 C   23 45 50.708980 -14 17 59.57189
 2018-Sep-21 10:12 C   23 45 50.427487 -14 17 57.08382
 2018-Sep-21 10:13 C   23 45 50.146073 -14 17 54.59566
 2018-Sep-21 10:14 C   23 45 49.864738 -14 17 52.10741
 2018-Sep-21 10:15 C   23 45 49.583483 -14 17 49.61908
 2018-Sep-21 10:16 C   23 45 49.302306 -14 17 47.13065
 2018-Sep-21 10:17 C   23 45 49.021209 -14 17 44.64215
 2018-Sep-21 10:18 C   23 45 48.740191 -14 17 42.15356
 2018-Sep-21 10:19 C   23 45 48.459252 -14 17 39.66488
 2018-Sep-21 10:20 C   23 45 48.178392 -14 17 37.17613
 2018-Sep-21 10:21 C   23 45 47.897611 -14 17 34.68729
 2018-Sep-21 10:22 C   23 45 47.616910 -14 17 32.19838
 2018-Sep-21 10:23 C   23 45 47.336288 -14 17 29.70939
 2018-Sep-21 10:24 C   23 45 47.055745 -14 17 27.22033
 2018-Sep-21 10:25 C   23 45 46.775281 -14 17 24.73119
